[{"OBJECT_NAME":"STARLINK-35190","OBJECT_ID":"2025-211M","EPOCH":"2026-03-09T16:40:11.055360","MEAN_MOTION":15.0565309,"ECCENTRICITY":0.00011123,"INCLINATION":97.6022,"RA_OF_ASC_NODE":114.087,"ARG_OF_PERICENTER":95.7198,"MEAN_ANOMALY":264.4156,"EPHEMERIS_TYPE":0,"CLASSIFICATION_TYPE":"U","NORAD_CAT_ID":65663,"ELEMENT_SET_NO":999,"REV_AT_EPOCH":2704,"BSTAR":0.00021777848,"MEAN_MOTION_DOT":3.083e-5,"MEAN_MOTION_DDOT":0},{"OBJECT_NAME":"FENGYUN 1C DEB","OBJECT_ID":"1999-025AZA","EPOCH":"2026-03-09T00:58:11.092224","MEAN_MOTION":14.92309795,"ECCENTRICITY":0.00550776,"INCLINATION":98.9912,"RA_OF_ASC_NODE":286.2715,"ARG_OF_PERICENTER":182.0101,"MEAN_ANOMALY":178.0901,"EPHEMERIS_TYPE":0,"CLASSIFICATION_TYPE":"U","NORAD_CAT_ID":30912,"ELEMENT_SET_NO":999,"REV_AT_EPOCH":687,"BSTAR":0.0018683847,"MEAN_MOTION_DOT":0.00019628,"MEAN_MOTION_DDOT":0}]
